{
  "type": "FeatureCollection",
  "features": [
    {
      "type": "Feature",
      "properties": {
        "norad_id": 48859,
        "name": "GPS BIII-5  (PRN 11)",
        "group": "gps-ops",
        "lat": 54.92289680247321,
        "lon": 79.1281436306342,
        "alt_km": 20225.405295957295,
        "timestamp": "2025-12-03T04:52:29.896146+00:00",
        "meta_object_name": "GPS BIII-5  (PRN 11)",
        "meta_object_id": "2021-054A",
        "meta_epoch": "2025-11-30T17:12:22.002912",
        "meta_mean_motion": 2.00553932,
        "meta_eccentricity": 0.0024653,
        "meta_inclination": 55.2606,
        "meta_ra_of_asc_node": 340.4377,
        "meta_arg_of_pericenter": 232.9477,
        "meta_mean_anomaly": 227.2059,
        "meta_ephemeris_type": 0,
        "meta_classification_type": "U",
        "meta_norad_cat_id": 48859,
        "meta_element_set_no": 999,
        "meta_rev_at_epoch": 3277,
        "meta_bstar": 0,
        "meta_mean_motion_dot": -5.5e-07,
        "meta_mean_motion_ddot": 0,
        "tle_line1": "1 48859U 21054A   25334.71692133 -.00000055  00000+0  00000+0 0  9994",
        "tle_line2": "2 48859  55.2606 340.4377 0024653 232.9477 227.2059  2.00553932 32777"
      },
      "geometry": {
        "type": "Point",
        "coordinates": [
          79.1281436306342,
          54.92289680247321
        ]
      }
    },
    {
      "type": "Feature",
      "properties": {
        "norad_id": 55268,
        "name": "GPS BIII-6  (PRN 28)",
        "group": "gps-ops",
        "lat": 33.6001773200354,
        "lon": -51.42797035570723,
        "alt_km": 20185.610543925577,
        "timestamp": "2025-12-03T04:52:29.896157+00:00",
        "meta_object_name": "GPS BIII-6  (PRN 28)",
        "meta_object_id": "2023-009A",
        "meta_epoch": "2025-12-02T00:29:31.953408",
        "meta_mean_motion": 2.00556444,
        "meta_eccentricity": 0.00034715,
        "meta_inclination": 55.1057,
        "meta_ra_of_asc_node": 156.2669,
        "meta_arg_of_pericenter": 359.2649,
        "meta_mean_anomaly": 4.3682,
        "meta_ephemeris_type": 0,
        "meta_classification_type": "U",
        "meta_norad_cat_id": 55268,
        "meta_element_set_no": 999,
        "meta_rev_at_epoch": 2129,
        "meta_bstar": 0,
        "meta_mean_motion_dot": 1.22e-06,
        "meta_mean_motion_ddot": 0,
        "tle_line1": "1 55268U 23009A   25336.02050872  .00000122  00000+0  00000+0 0  9996",
        "tle_line2": "2 55268  55.1057 156.2669 0003471 359.2649   4.3682  2.00556444 21296"
      },
      "geometry": {
        "type": "Point",
        "coordinates": [
          -51.42797035570723,
          33.6001773200354
        ]
      }
    },
    {
      "type": "Feature",
      "properties": {
        "norad_id": 62339,
        "name": "GPS BIII-7  (PRN 01)",
        "group": "gps-ops",
        "lat": -27.5896990897311,
        "lon": -176.32988935648413,
        "alt_km": 20204.831663644203,
        "timestamp": "2025-12-03T04:52:29.896169+00:00",
        "meta_object_name": "GPS BIII-7  (PRN 01)",
        "meta_object_id": "2024-242A",
        "meta_epoch": "2025-12-02T03:41:48.732000",
        "meta_mean_motion": 2.00567227,
        "meta_eccentricity": 0.0011644,
        "meta_inclination": 54.9268,
        "meta_ra_of_asc_node": 342.1698,
        "meta_arg_of_pericenter": 343.3913,
        "meta_mean_anomaly": 193.6606,
        "meta_ephemeris_type": 0,
        "meta_classification_type": "U",
        "meta_norad_cat_id": 62339,
        "meta_element_set_no": 999,
        "meta_rev_at_epoch": 730,
        "meta_bstar": 0,
        "meta_mean_motion_dot": -6.2e-07,
        "meta_mean_motion_ddot": 0,
        "tle_line1": "1 62339U 24242A   25336.15403625 -.00000062  00000+0  00000+0 0  9999",
        "tle_line2": "2 62339  54.9268 342.1698 0011644 343.3913 193.6606  2.00567227  7306"
      },
      "geometry": {
        "type": "Point",
        "coordinates": [
          -176.32988935648413,
          -27.5896990897311
        ]
      }
    },
    {
      "type": "Feature",
      "properties": {
        "norad_id": 64202,
        "name": "GPS BIII-8  (PRN 21)",
        "group": "gps-ops",
        "lat": 35.0066009579507,
        "lon": 68.27665982276538,
        "alt_km": 20180.532090614066,
        "timestamp": "2025-12-03T04:52:29.896182+00:00",
        "meta_object_name": "GPS BIII-8  (PRN 21)",
        "meta_object_id": "2025-116A",
        "meta_epoch": "2025-11-27T15:37:05.200896",
        "meta_mean_motion": 2.0055919,
        "meta_eccentricity": 0.00048631,
        "meta_inclination": 55.0944,
        "meta_ra_of_asc_node": 39.2516,
        "meta_arg_of_pericenter": 304.421,
        "meta_mean_anomaly": 50.9436,
        "meta_ephemeris_type": 0,
        "meta_classification_type": "U",
        "meta_norad_cat_id": 64202,
        "meta_element_set_no": 999,
        "meta_rev_at_epoch": 382,
        "meta_bstar": 0,
        "meta_mean_motion_dot": -6e-07,
        "meta_mean_motion_ddot": 0,
        "tle_line1": "1 64202U 25116A   25331.65075464 -.00000060  00000+0  00000+0 0  9995",
        "tle_line2": "2 64202  55.0944  39.2516 0004863 304.4210  50.9436  2.00559190  3825"
      },
      "geometry": {
        "type": "Point",
        "coordinates": [
          68.27665982276538,
          35.0066009579507
        ]
      }
    }
  ]
}